[{"OBJECT_NAME":"METOP-SGA1","OBJECT_ID":"2025-172A","EPOCH":"2026-03-09T18:22:16.359168","MEAN_MOTION":14.21429454,"ECCENTRICITY":0.0001154,"INCLINATION":98.6757,"RA_OF_ASC_NODE":130.2282,"ARG_OF_PERICENTER":80.674,"MEAN_ANOMALY":279.4568,"EPHEMERIS_TYPE":0,"CLASSIFICATION_TYPE":"U","NORAD_CAT_ID":65159,"ELEMENT_SET_NO":999,"REV_AT_EPOCH":2966,"BSTAR":3.7676115e-5,"MEAN_MOTION_DOT":3.9e-7,"MEAN_MOTION_DDOT":0},{"OBJECT_NAME":"CZ-6A DEB","OBJECT_ID":"2024-140CC","EPOCH":"2026-03-09T16:10:47.703072","MEAN_MOTION":14.10852325,"ECCENTRICITY":0.00837126,"INCLINATION":89.0115,"RA_OF_ASC_NODE":287.9263,"ARG_OF_PERICENTER":168.0294,"MEAN_ANOMALY":192.2907,"EPHEMERIS_TYPE":0,"CLASSIFICATION_TYPE":"U","NORAD_CAT_ID":60675,"ELEMENT_SET_NO":999,"REV_AT_EPOCH":8143,"BSTAR":0.00015109955,"MEAN_MOTION_DOT":2.94e-6,"MEAN_MOTION_DDOT":0}]
